NORAD_CAT_ID,OBJECT_NAME,OBJECT_TYPE,EPOCH,MEAN_MOTION,ECCENTRICITY,INCLINATION,RA_OF_ASC_NODE,ARG_OF_PERICENTER,MEAN_ANOMALY,BSTAR,MEAN_MOTION_DOT,MEAN_MOTION_DDOT,TLE_LINE0,TLE_LINE1,TLE_LINE2,SEMIMAJOR_AXIS,PERIOD,APOGEE,PERIGEE,DECAYED
53415.0,STARLINK-4479,PAYLOAD,2022-11-10 20:21:34,15.08842129,9.63e-05,53.2155,167.7519,87.8531,272.2571,-0.00032442,-5.447e-05,0.0,0 STARLINK-4479,1 53415U 22097AD  22314.84831724 -.00005447  00000-0 -32442-3 0  9997,2 53415  53.2155 167.7519 0000963  87.8531 272.2571 15.08842129 15223,6917.874,95.437,540.405,539.073,0.0
53415.0,STARLINK-4479,PAYLOAD,2022-11-11 01:07:43,15.08870328,7.879999999999999e-05,53.2156,166.86,92.729,267.3792,-0.0006647,-0.00010859,0.0,0 STARLINK-4479,1 53415U 22097AD  22315.04703040 -.00010859  00000-0 -66470-3 0  9990,2 53415  53.2156 166.8600 0000788  92.7290 267.3792 15.08870328 14790,6917.788000000001,95.436,540.198,539.1080000000002,0.0
53415.0,STARLINK-4479,PAYLOAD,2022-11-11 07:29:15,15.088881,0.0001121,53.2156,165.6705,58.0942,302.0159,-0.00089934,-0.00014591,0.0,0 STARLINK-4479,1 53415U 22097AD  22315.31198168 -.00014591  00000-0 -89934-3 0  9996,2 53415  53.2156 165.6705 0001121  58.0942 302.0159 15.08888100 14830,6917.733,95.435,540.374,538.823,0.0
53415.0,STARLINK-4479,PAYLOAD,2022-11-11 20:12:22,15.0882031,0.0001346,53.2159,163.2916,63.4138,296.6992,0.00022585,3.306e-05,0.0,0 STARLINK-4479,1 53415U 22097AD  22315.84192584  .00003306  00000-0  22585-3 0  9999,2 53415  53.2159 163.2916 0001346  63.4138 296.6992 15.08820310 14918,6917.941,95.439,540.737,538.874,0.0
53415.0,STARLINK-4479,PAYLOAD,2022-11-12 07:20:04,15.08834227,0.0001411,53.2151,161.2102,63.4775,296.6362,0.00039703,6.035e-05,0.0,0 STARLINK-4479,1 53415U 22097AD  22316.30560913  .00006035  00000-0  39703-3 0  9998,2 53415  53.2151 161.2102 0001411  63.4775 296.6362 15.08834227 15447,6917.898,95.438,540.739,538.7869999999998,0.0
53415.0,STARLINK-4479,PAYLOAD,2022-11-12 18:27:46,15.08845002,0.000144,53.2152,159.1288,61.9734,298.1404,0.00045131,6.903e-05,0.0,0 STARLINK-4479,1 53415U 22097AD  22316.76928782  .00006903  00000-0  45131-3 0  9996,2 53415  53.2152 159.1288 0001440  61.9734 298.1404 15.08845002 15053,6917.865,95.437,540.726,538.734,0.0
53415.0,STARLINK-4479,PAYLOAD,2022-11-12 20:03:09,15.08846583,0.0001431999999999,53.2153,158.8315,61.6851,298.4285,0.00045203,6.915e-05,0.0,0 STARLINK-4479,1 53415U 22097AD  22316.83552713  .00006915  00000-0  45203-3 0  9994,2 53415  53.2153 158.8315 0001432  61.6851 298.4285 15.08846583 15526,6917.86,95.437,540.716,538.735,0.0
53415.0,STARLINK-4479,PAYLOAD,2022-11-13 07:10:51,15.08856893,0.0001466,53.2152,156.7498,61.3591,298.7548,0.00048629,7.463e-05,0.0,0 STARLINK-4479,1 53415U 22097AD  22317.29920193  .00007463  00000-0  48629-3 0  9990,2 53415  53.2152 156.7498 0001466  61.3591 298.7548 15.08856893 15596,6917.829000000002,95.436,540.7080000000002,538.68,0.0
53415.0,STARLINK-4479,PAYLOAD,2022-11-13 18:18:33,15.08846614,0.0001549,53.2153,154.668,66.104,294.0114,0.0001012,1.323e-05,0.0,0 STARLINK-4479,1 53415U 22097AD  22317.76288258  .00001323  00000-0  10120-3 0  9995,2 53415  53.2153 154.6680 0001549  66.1040 294.0114 15.08846614 15207,6917.86,95.437,540.797,538.654,0.0
53415.0,STARLINK-4479,PAYLOAD,2022-11-14 00:40:05,15.08848006,0.0001581,53.2154,153.4789,64.5348,295.5807,0.00013088,1.796e-05,0.0,0 STARLINK-4479,1 53415U 22097AD  22318.02784128  .00001796  00000-0  13088-3 0  9992,2 53415  53.2154 153.4789 0001581  64.5348 295.5807 15.08848006 15701,6917.856,95.437,540.815,538.627,0.0
53415.0,STARLINK-4479,PAYLOAD,2022-11-14 18:09:19,15.08852721,0.000162,53.2157,150.2079,66.8976,293.2187,0.00010371,1.363e-05,0.0,0 STARLINK-4479,1 53415U 22097AD  22318.75647469  .00001363  00000-0  10371-3 0  9990,2 53415  53.2157 150.2079 0001620  66.8976 293.2187 15.08852721 15814,6917.842,95.437,540.827,538.586,0.0
53415.0,STARLINK-4479,PAYLOAD,2022-11-14 22:55:28,15.08853313,0.0001631,53.2158,149.3159,67.1155,293.0009,9.2644e-05,1.187e-05,0.0,0 STARLINK-4479,1 53415U 22097AD  22318.95519220  .00001187  00000-0  92644-4 0  9993,2 53415  53.2158 149.3159 0001631  67.1155 293.0009 15.08853313 15389,6917.84,95.437,540.8330000000002,538.576,0.0
53415.0,STARLINK-4479,PAYLOAD,2022-11-15 13:13:57,15.08844197,0.0001607,53.2165,146.6392,66.9512,293.1649,9.0975e-05,1.16e-05,0.0,0 STARLINK-4479,1 53415U 22097AD  22319.55135444  .00001160  00000-0  90975-4 0  9998,2 53415  53.2165 146.6392 0001607  66.9512 293.1649 15.08844197 15935,6917.868,95.437,540.844,538.621,0.0
53415.0,STARLINK-4479,PAYLOAD,2022-11-15 14:49:20,15.08842894,0.0001604,53.2165,146.342,66.8837,293.2324,7.3655e-05,8.84e-06,0.0,0 STARLINK-4479,1 53415U 22097AD  22319.61759524  .00000884  00000-0  73655-4 0  9994,2 53415  53.2165 146.3420 0001604  66.8837 293.2324 15.08842894 15483,6917.871999999999,95.437,540.846,538.627,0.0
53415.0,STARLINK-4479,PAYLOAD,2022-11-15 19:35:29,15.08839639,0.0001567,53.2165,145.4499,66.2819,293.8337,4.7304e-05,4.65e-06,0.0,0 STARLINK-4479,1 53415U 22097AD  22319.81631719  .00000465  00000-0  47304-4 0  9998,2 53415  53.2165 145.4499 0001567  66.2819 293.8337 15.08839639 15978,6917.880999999999,95.438,540.831,538.6619999999998,0.0
53415.0,STARLINK-4479,PAYLOAD,2022-11-16 05:07:48,15.08841493,0.0001576999999999,53.2166,143.6658,65.5509,294.5648,3.4251e-05,2.57e-06,0.0,0 STARLINK-4479,1 53415U 22097AD  22320.21375513  .00000257  00000-0  34251-4 0  9997,2 53415  53.2166 143.6658 0001577  65.5509 294.5648 15.08841493 16037,6917.876,95.437,540.832,538.65,0.0
53415.0,STARLINK-4479,PAYLOAD,2022-11-16 19:26:16,15.08846671,0.0001557,53.2166,140.9893,65.8075,294.308,1.434e-05,-6e-07,0.0,0 STARLINK-4479,1 53415U 22097AD  22320.80991030 -.00000060  00000-0  14340-4 0  9990,2 53415  53.2166 140.9893 0001557  65.8075 294.3080 15.08846671 15666,6917.86,95.437,540.802,538.648,0.0
53415.0,STARLINK-4479,PAYLOAD,2022-11-17 00:12:25,15.08847563,0.0001564999999999,53.2165,140.0971,65.4249,294.6906,1.8591e-05,8e-08,0.0,0 STARLINK-4479,1 53415U 22097AD  22321.00862842  .00000008  00000-0  18591-4 0  9994,2 53415  53.2165 140.0971 0001565  65.4249 294.6906 15.08847563 16157,6917.857,95.437,540.805,538.64,0.0
53415.0,STARLINK-4479,PAYLOAD,2022-11-17 22:27:50,15.08830143,0.0001553,53.2166,135.9341,64.2888,295.8265,-3.9882e-06,-3.51e-06,0.0,0 STARLINK-4479,1 53415U 22097AD  22321.93600310 -.00000351  00000-0 -39882-5 0  9996,2 53415  53.2166 135.9341 0001553  64.2888 295.8265 15.08830143 15836,6917.911,95.438,540.85,538.701,0.0
53415.0,STARLINK-4479,PAYLOAD,2022-11-18 04:49:23,15.08831699,0.000157,53.2167,134.7447,63.9681,296.1472,2.6832e-06,-2.45e-06,0.0,0 STARLINK-4479,1 53415U 22097AD  22322.20096321 -.00000245  00000-0  26832-5 0  9990,2 53415  53.2167 134.7447 0001570  63.9681 296.1472 15.08831699 16334,6917.906,95.438,540.857,538.685,0.0
53415.0,STARLINK-4479,PAYLOAD,2022-11-18 20:43:14,15.08837437,0.000152,53.217,131.77100000000002,65.0176,295.0974,1.1268e-05,-1.09e-06,0.0,0 STARLINK-4479,1 53415U 22097AD  22322.86336168 -.00000109  00000-0  11268-4 0  9993,2 53415  53.2170 131.7710 0001520  65.0176 295.0974 15.08837437 16437,6917.888000000001,95.438,540.805,538.702,0.0
53415.0,STARLINK-4479,PAYLOAD,2022-11-19 04:40:10,15.08836672,0.0001516,53.2169,130.2832,63.8143,296.3005,7.8804e-05,9.66e-06,0.0,0 STARLINK-4479,1 53415U 22097AD  22323.19456168  .00000966  00000-0  78804-4 0  9992,2 53415  53.2169 130.2832 0001516  63.8143 296.3005 15.08836672 16023,6917.891,95.438,540.804,538.707,0.0
53415.0,STARLINK-4479,PAYLOAD,2022-11-19 11:01:42,15.08834987,0.0001489,53.2171,129.0943,63.827,296.2875,0.00012904,1.766e-05,0.0,0 STARLINK-4479,1 53415U 22097AD  22323.45952196  .00001766  00000-0  12904-3 0  9990,2 53415  53.2171 129.0943 0001489  63.8270 296.2875 15.08834987 16521,6917.896,95.438,540.7909999999998,538.731,0.0
53415.0,STARLINK-4479,PAYLOAD,2022-11-19 17:23:15,15.08838968,0.0001463,53.2168,127.9048,64.0397,296.0745,0.00012564,1.712e-05,0.0,0 STARLINK-4479,1 53415U 22097AD  22323.72448010  .00001712  00000-0  12564-3 0  9998,2 53415  53.2168 127.9048 0001463  64.0397 296.0745 15.08838968 16566,6917.884,95.438,540.761,538.736,0.0
53415.0,STARLINK-4479,PAYLOAD,2022-11-20 10:52:29,15.08845532,0.0001492,53.2168,124.6337,64.2734,295.8412,0.0001524,2.139e-05,0.0,0 STARLINK-4479,1 53415U 22097AD  22324.45311528  .00002139  00000-0  15240-3 0  9990,2 53415  53.2168 124.6337 0001492  64.2734 295.8412 15.08845532 16215,6917.863,95.437,540.761,538.696,0.0
53415.0,STARLINK-4479,PAYLOAD,2022-11-20 20:24:47,15.08849065,0.0001496999999999,53.2174,122.8502,62.1781,297.9363,0.00012457,1.696e-05,0.0,0 STARLINK-4479,1 53415U 22097AD  22324.85055196  .00001696  00000-0  12457-3 0  9994,2 53415  53.2174 122.8502 0001497  62.1781 297.9363 15.08849065 16730,6917.853,95.437,540.753,538.682,0.0
53415.0,STARLINK-4479,PAYLOAD,2022-11-21 10:43:16,15.08836598,0.0001549,53.2164,120.1733,64.8196,295.2957,8.508300000000001e-06,-1.53e-06,0.0,0 STARLINK-4479,1 53415U 22097AD  22325.44672305 -.00000153  00000-0  85083-5 0  9992,2 53415  53.2164 120.1733 0001549  64.8196 295.2957 15.08836598 16369,6917.891,95.438,540.827,538.684,0.0
53415.0,STARLINK-4479,PAYLOAD,2022-11-21 17:04:49,15.0884072,0.0001530999999999,53.2168,118.9838,65.0849,295.0302,2.1364e-05,5.2e-07,0.0,0 STARLINK-4479,1 53415U 22097AD  22325.71167938  .00000052  00000-0  21364-4 0  9991,2 53415  53.2168 118.9838 0001531  65.0849 295.0302 15.08840720 16862,6917.878000000002,95.438,540.802,538.684,0.0
53415.0,STARLINK-4479,PAYLOAD,2022-11-22 16:55:35,15.08848692,0.0001486999999999,53.2184,114.5249,60.0726,300.0413,1.4128e-05,-6.3e-07,0.0,0 STARLINK-4479,1 53415U 22097AD  22326.70527084 -.00000063  00000-0  14128-4 0  9996,2 53415  53.2184 114.5249 0001487  60.0726 300.0413 15.08848692 16559,6917.854,95.437,540.748,538.69,0.0
